<?xml version="1.0" encoding="UTF-8"?>
<ndm xmlns:xsi="http://www.w3.org/2001/XMLSchema-instance" xsi:noNamespaceSchemaLocation="https://sanaregistry.org/r/ndmxml_unqualified/ndmxml-2.0.0-master-2.0.xsd">
<omm id="CCSDS_OMM_VERS" version="2.0">
<header><CREATION_DATE/><ORIGINATOR/></header><body><segment><metadata><OBJECT_NAME>ONEWEB-0018</OBJECT_NAME><OBJECT_ID>2020-020L</OBJECT_ID><CENTER_NAME>EARTH</CENTER_NAME><REF_FRAME>TEME</REF_FRAME><TIME_SYSTEM>UTC</TIME_SYSTEM><MEAN_ELEMENT_THEORY>SGP4</MEAN_ELEMENT_THEORY></metadata><data><meanElements><EPOCH>2026-01-12T19:13:59.993184</EPOCH><MEAN_MOTION>13.11414535</MEAN_MOTION><ECCENTRICITY>.00017214</ECCENTRICITY><INCLINATION>87.8831</INCLINATION><RA_OF_ASC_NODE>51.9981</RA_OF_ASC_NODE><ARG_OF_PERICENTER>91.3195</ARG_OF_PERICENTER><MEAN_ANOMALY>268.8130</MEAN_ANOMALY></meanElements><tleParameters><EPHEMERIS_TYPE>0</EPHEMERIS_TYPE><CLASSIFICATION_TYPE>U</CLASSIFICATION_TYPE><NORAD_CAT_ID>45434</NORAD_CAT_ID><ELEMENT_SET_NO>999</ELEMENT_SET_NO><REV_AT_EPOCH>28226</REV_AT_EPOCH><BSTAR>.26713839E-3</BSTAR><MEAN_MOTION_DOT>.107E-5</MEAN_MOTION_DOT><MEAN_MOTION_DDOT>0</MEAN_MOTION_DDOT></tleParameters></data></segment></body></omm>
<omm id="CCSDS_OMM_VERS" version="2.0">
<header><CREATION_DATE/><ORIGINATOR/></header><body><segment><metadata><OBJECT_NAME>ONEWEB-0083</OBJECT_NAME><OBJECT_ID>2020-020M</OBJECT_ID><CENTER_NAME>EARTH</CENTER_NAME><REF_FRAME>TEME</REF_FRAME><TIME_SYSTEM>UTC</TIME_SYSTEM><MEAN_ELEMENT_THEORY>SGP4</MEAN_ELEMENT_THEORY></metadata><data><meanElements><EPOCH>2026-01-12T19:00:35.393184</EPOCH><MEAN_MOTION>13.11415274</MEAN_MOTION><ECCENTRICITY>.00017206</ECCENTRICITY><INCLINATION>87.8829</INCLINATION><RA_OF_ASC_NODE>51.9883</RA_OF_ASC_NODE><ARG_OF_PERICENTER>95.9894</ARG_OF_PERICENTER><MEAN_ANOMALY>264.1430</MEAN_ANOMALY></meanElements><tleParameters><EPHEMERIS_TYPE>0</EPHEMERIS_TYPE><CLASSIFICATION_TYPE>U</CLASSIFICATION_TYPE><NORAD_CAT_ID>45435</NORAD_CAT_ID><ELEMENT_SET_NO>999</ELEMENT_SET_NO><REV_AT_EPOCH>28230</REV_AT_EPOCH><BSTAR>.13023478E-2</BSTAR><MEAN_MOTION_DOT>.474E-5</MEAN_MOTION_DOT><MEAN_MOTION_DDOT>0</MEAN_MOTION_DDOT></tleParameters></data></segment></body></omm>
<omm id="CCSDS_OMM_VERS" version="2.0">
<header><CREATION_DATE/><ORIGINATOR/></header><body><segment><metadata><OBJECT_NAME>ONEWEB-0095</OBJECT_NAME><OBJECT_ID>2020-020N</OBJECT_ID><CENTER_NAME>EARTH</CENTER_NAME><REF_FRAME>TEME</REF_FRAME><TIME_SYSTEM>UTC</TIME_SYSTEM><MEAN_ELEMENT_THEORY>SGP4</MEAN_ELEMENT_THEORY></metadata><data><meanElements><EPOCH>2026-01-12T20:37:12.474624</EPOCH><MEAN_MOTION>13.11417840</MEAN_MOTION><ECCENTRICITY>.00022441</ECCENTRICITY><INCLINATION>87.8827</INCLINATION><RA_OF_ASC_NODE>51.9851</RA_OF_ASC_NODE><ARG_OF_PERICENTER>115.1665</ARG_OF_PERICENTER><MEAN_ANOMALY>244.9696</MEAN_ANOMALY></meanElements><tleParameters><EPHEMERIS_TYPE>0</EPHEMERIS_TYPE><CLASSIFICATION_TYPE>U</CLASSIFICATION_TYPE><NORAD_CAT_ID>45436</NORAD_CAT_ID><ELEMENT_SET_NO>999</ELEMENT_SET_NO><REV_AT_EPOCH>28231</REV_AT_EPOCH><BSTAR>.1439334E-2</BSTAR><MEAN_MOTION_DOT>.523E-5</MEAN_MOTION_DOT><MEAN_MOTION_DDOT>0</MEAN_MOTION_DDOT></tleParameters></data></segment></body></omm>
<omm id="CCSDS_OMM_VERS" version="2.0">
<header><CREATION_DATE/><ORIGINATOR/></header><body><segment><metadata><OBJECT_NAME>ONEWEB-0092</OBJECT_NAME><OBJECT_ID>2020-020P</OBJECT_ID><CENTER_NAME>EARTH</CENTER_NAME><REF_FRAME>TEME</REF_FRAME><TIME_SYSTEM>UTC</TIME_SYSTEM><MEAN_ELEMENT_THEORY>SGP4</MEAN_ELEMENT_THEORY></metadata><data><meanElements><EPOCH>2026-01-12T19:56:43.660896</EPOCH><MEAN_MOTION>13.11417388</MEAN_MOTION><ECCENTRICITY>.00019735</ECCENTRICITY><INCLINATION>87.8832</INCLINATION><RA_OF_ASC_NODE>51.9904</RA_OF_ASC_NODE><ARG_OF_PERICENTER>101.8243</ARG_OF_PERICENTER><MEAN_ANOMALY>258.3106</MEAN_ANOMALY></meanElements><tleParameters><EPHEMERIS_TYPE>0</EPHEMERIS_TYPE><CLASSIFICATION_TYPE>U</CLASSIFICATION_TYPE><NORAD_CAT_ID>45437</NORAD_CAT_ID><ELEMENT_SET_NO>999</ELEMENT_SET_NO><REV_AT_EPOCH>28242</REV_AT_EPOCH><BSTAR>-.11419185E-2</BSTAR><MEAN_MOTION_DOT>-.392E-5</MEAN_MOTION_DOT><MEAN_MOTION_DDOT>0</MEAN_MOTION_DDOT></tleParameters></data></segment></body></omm>
<omm id="CCSDS_OMM_VERS" version="2.0">
<header><CREATION_DATE/><ORIGINATOR/></header><body><segment><metadata><OBJECT_NAME>ONEWEB-0085</OBJECT_NAME><OBJECT_ID>2020-020Q</OBJECT_ID><CENTER_NAME>EARTH</CENTER_NAME><REF_FRAME>TEME</REF_FRAME><TIME_SYSTEM>UTC</TIME_SYSTEM><MEAN_ELEMENT_THEORY>SGP4</MEAN_ELEMENT_THEORY></metadata><data><meanElements><EPOCH>2026-01-12T20:49:13.556064</EPOCH><MEAN_MOTION>13.11415855</MEAN_MOTION><ECCENTRICITY>.00018372</ECCENTRICITY><INCLINATION>87.8823</INCLINATION><RA_OF_ASC_NODE>51.9900</RA_OF_ASC_NODE><ARG_OF_PERICENTER>96.5467</ARG_OF_PERICENTER><MEAN_ANOMALY>263.5870</MEAN_ANOMALY></meanElements><tleParameters><EPHEMERIS_TYPE>0</EPHEMERIS_TYPE><CLASSIFICATION_TYPE>U</CLASSIFICATION_TYPE><NORAD_CAT_ID>45438</NORAD_CAT_ID><ELEMENT_SET_NO>999</ELEMENT_SET_NO><REV_AT_EPOCH>28231</REV_AT_EPOCH><BSTAR>.13112611E-2</BSTAR><MEAN_MOTION_DOT>.477E-5</MEAN_MOTION_DOT><MEAN_MOTION_DDOT>0</MEAN_MOTION_DDOT></tleParameters></data></segment></body></omm>
<omm id="CCSDS_OMM_VERS" version="2.0">
<header><CREATION_DATE/><ORIGINATOR/></header><body><segment><metadata><OBJECT_NAME>ONEWEB-0096</OBJECT_NAME><OBJECT_ID>2020-020R</OBJECT_ID><CENTER_NAME>EARTH</CENTER_NAME><REF_FRAME>TEME</REF_FRAME><TIME_SYSTEM>UTC</TIME_SYSTEM><MEAN_ELEMENT_THEORY>SGP4</MEAN_ELEMENT_THEORY></metadata><data><meanElements><EPOCH>2026-01-12T19:01:47.276256</EPOCH><MEAN_MOTION>13.11416238</MEAN_MOTION><ECCENTRICITY>.00018541</ECCENTRICITY><INCLINATION>87.8834</INCLINATION><RA_OF_ASC_NODE>51.9880</RA_OF_ASC_NODE><ARG_OF_PERICENTER>95.2334</ARG_OF_PERICENTER><MEAN_ANOMALY>264.9005</MEAN_ANOMALY></meanElements><tleParameters><EPHEMERIS_TYPE>0</EPHEMERIS_TYPE><CLASSIFICATION_TYPE>U</CLASSIFICATION_TYPE><NORAD_CAT_ID>45439</NORAD_CAT_ID><ELEMENT_SET_NO>999</ELEMENT_SET_NO><REV_AT_EPOCH>28229</REV_AT_EPOCH><BSTAR>.12004586E-2</BSTAR><MEAN_MOTION_DOT>.438E-5</MEAN_MOTION_DOT><MEAN_MOTION_DDOT>0</MEAN_MOTION_DDOT></tleParameters></data></segment></body></omm>
<omm id="CCSDS_OMM_VERS" version="2.0">
<header><CREATION_DATE/><ORIGINATOR/></header><body><segment><metadata><OBJECT_NAME>ONEWEB-0037</OBJECT_NAME><OBJECT_ID>2020-020S</OBJECT_ID><CENTER_NAME>EARTH</CENTER_NAME><REF_FRAME>TEME</REF_FRAME><TIME_SYSTEM>UTC</TIME_SYSTEM><MEAN_ELEMENT_THEORY>SGP4</MEAN_ELEMENT_THEORY></metadata><data><meanElements><EPOCH>2026-01-12T20:23:35.845152</EPOCH><MEAN_MOTION>13.11417509</MEAN_MOTION><ECCENTRICITY>.00018657</ECCENTRICITY><INCLINATION>87.8844</INCLINATION><RA_OF_ASC_NODE>51.9490</RA_OF_ASC_NODE><ARG_OF_PERICENTER>98.7031</ARG_OF_PERICENTER><MEAN_ANOMALY>261.4308</MEAN_ANOMALY></meanElements><tleParameters><EPHEMERIS_TYPE>0</EPHEMERIS_TYPE><CLASSIFICATION_TYPE>U</CLASSIFICATION_TYPE><NORAD_CAT_ID>45440</NORAD_CAT_ID><ELEMENT_SET_NO>999</ELEMENT_SET_NO><REV_AT_EPOCH>28233</REV_AT_EPOCH><BSTAR>.10115856E-2</BSTAR><MEAN_MOTION_DOT>.371E-5</MEAN_MOTION_DOT><MEAN_MOTION_DDOT>0</MEAN_MOTION_DDOT></tleParameters></data></segment></body></omm>
<omm id="CCSDS_OMM_VERS" version="2.0">
<header><CREATION_DATE/><ORIGINATOR/></header><body><segment><metadata><OBJECT_NAME>ONEWEB-0042</OBJECT_NAME><OBJECT_ID>2020-020T</OBJECT_ID><CENTER_NAME>EARTH</CENTER_NAME><REF_FRAME>TEME</REF_FRAME><TIME_SYSTEM>UTC</TIME_SYSTEM><MEAN_ELEMENT_THEORY>SGP4</MEAN_ELEMENT_THEORY></metadata><data><meanElements><EPOCH>2026-01-12T20:36:49.360896</EPOCH><MEAN_MOTION>13.11417207</MEAN_MOTION><ECCENTRICITY>.00019108</ECCENTRICITY><INCLINATION>87.8832</INCLINATION><RA_OF_ASC_NODE>51.9737</RA_OF_ASC_NODE><ARG_OF_PERICENTER>97.2368</ARG_OF_PERICENTER><MEAN_ANOMALY>262.8977</MEAN_ANOMALY></meanElements><tleParameters><EPHEMERIS_TYPE>0</EPHEMERIS_TYPE><CLASSIFICATION_TYPE>U</CLASSIFICATION_TYPE><NORAD_CAT_ID>45441</NORAD_CAT_ID><ELEMENT_SET_NO>999</ELEMENT_SET_NO><REV_AT_EPOCH>28230</REV_AT_EPOCH><BSTAR>.15294728E-2</BSTAR><MEAN_MOTION_DOT>.555E-5</MEAN_MOTION_DOT><MEAN_MOTION_DDOT>0</MEAN_MOTION_DDOT></tleParameters></data></segment></body></omm>

</ndm>
