ONEWEB-0018             
1 45434U 20020L   26012.80138881  .00000107  00000+0  26714-3 0  9992
2 45434  87.8831  51.9981 0001721  91.3195 268.8130 13.11414535282265
ONEWEB-0083             
1 45435U 20020M   26012.79207631  .00000474  00000+0  13023-2 0  9996
2 45435  87.8829  51.9883 0001720  95.9894 264.1430 13.11415274282307
ONEWEB-0095             
1 45436U 20020N   26012.85917216  .00000523  00000+0  14393-2 0  9997
2 45436  87.8827  51.9851 0002244 115.1665 244.9696 13.11417840282316
ONEWEB-0092             
1 45437U 20020P   26012.83106089 -.00000392  00000+0 -11419-2 0  9996
2 45437  87.8832  51.9904 0001973 101.8243 258.3106 13.11417388282428
ONEWEB-0085             
1 45438U 20020Q   26012.86751801  .00000477  00000+0  13113-2 0  9993
2 45438  87.8823  51.9900 0001837  96.5467 263.5870 13.11415855282313
ONEWEB-0096             
1 45439U 20020R   26012.79290829  .00000438  00000+0  12005-2 0  9990
2 45439  87.8834  51.9880 0001854  95.2334 264.9005 13.11416238282299
ONEWEB-0037             
1 45440U 20020S   26012.84972043  .00000371  00000+0  10116-2 0  9990
2 45440  87.8844  51.9490 0001865  98.7031 261.4308 13.11417509282338
ONEWEB-0042             
1 45441U 20020T   26012.85890464  .00000555  00000+0  15295-2 0  9995
2 45441  87.8832  51.9737 0001910  97.2368 262.8977 13.11417207282307
